STARLINK-6059           
1 56814U 23078AZ  23168.37670487 -.00170910  00000+0 -14136-2 0  9992
2 56814  70.0018   5.2036 0003964 284.0340  76.0415 15.70509762  2996
STARLINK-6057           
1 56815U 23078BA  23168.50001157 -.00024049  00000+0 -19862-3 0  9993
2 56815  70.0016   4.8532 0003565 268.4600  70.8981 15.69944983  3013
STARLINK-6067           
1 56816U 23078BB  23168.50001157 -.00023324  00000+0 -19256-3 0  9996
2 56816  70.0025   4.8556 0003481 267.4355  71.3288 15.69946669  3012
STARLINK-5982           
1 56817U 23078BC  23168.37742348 -.00452645  00000+0 -38558-2 0  9993
2 56817  70.0012   5.2055 0004441 293.2376  66.8352 15.70608746  2995
STARLINK-6028           
1 56818U 23078BD  23168.50001157 -.00026005  00000+0 -21499-3 0  9999
2 56818  70.0013   4.8531 0003643 267.2605  72.6918 15.69943022  3014
STARLINK-30119          
1 56823U 23079A   23168.58334491 -.01663950  00000+0 -19231-1 0  9990
2 56823  43.0007 135.4643 0001596 261.8265  20.5181 15.64263740  2532
STARLINK-30120          
1 56824U 23079B   23168.58334491 -.01662478  00000+0 -19202-1 0  9993
2 56824  43.0008 135.4634 0001685 252.1391  30.6045 15.64275346  2532
STARLINK-30084          
1 56825U 23079C   23168.58334491 -.01660860  00000+0 -19177-1 0  9998
2 56825  43.0008 135.4625 0000675 258.1499  24.9561 15.64290667  2538
STARLINK-30114          
1 56826U 23079D   23168.33302243  .00168545  00000+0  10546-2 0  9994
2 56826  43.0037 136.8372 0002084 199.3899 160.6892 15.75552252  2494
STARLINK-30151          
1 56827U 23079E   23168.58334491 -.01663364  00000+0 -19176-1 0  9991
2 56827  43.0009 135.4609 0001957 265.0024  18.8419 15.64321166  2531
STARLINK-30152          
1 56828U 23079F   23168.58334491 -.01660721  00000+0 -19133-1 0  9999
2 56828  43.0009 135.4611 0001752 250.7544  33.4561 15.64334422  2536
STARLINK-30139          
1 56829U 23079G   23168.58334491  .00390516  65976-4  11377-2 0  9990
2 56829  43.0042 134.2862 0003423 255.9680 137.3553 15.92056174  2546
STARLINK-30134          
1 56830U 23079H   23168.33540941  .00249073  00000+0  80014-3 0  9992
2 56830  43.0046 135.9555 0003349 279.2779  80.7716 15.89516062  2831
STARLINK-30128          
1 56832U 23079K   23168.58334491  .00315299  00000+0  10641-2 0  9994
2 56832  43.0030 134.5333 0003801 230.8154  65.3687 15.88373310  2548
STARLINK-30131          
1 56833U 23079L   23168.58334491 -.00660446  00000+0 -47770-2 0  9997
2 56833  43.0051 135.0545 0001662 256.3411 191.5352 15.74387764  2538
STARLINK-30069          
1 56834U 23079M   23168.58334491 -.01664543  00000+0 -19137-1 0  9996
2 56834  43.0010 135.4568 0001814 272.5797  13.1432 15.64393535  2539
STARLINK-30144          
1 56835U 23079N   23168.58334491 -.01664940  00000+0 -19131-1 0  9992
2 56835  43.0008 135.4565 0001622 265.3658  20.7051 15.64410202  2539
STARLINK-30142          
1 56836U 23079P   23168.58334491 -.01664345  00000+0 -19110-1 0  9999
2 56836  43.0009 135.4560 0001984 268.2240  18.2279 15.64423404  2538
STARLINK-30133          
1 56837U 23079Q   23168.58334491 -.01665564  00000+0 -19110-1 0  9994
2 56837  43.0009 135.4533 0000805 277.4635   9.6932 15.64456606  2530
STARLINK-30123          
1 56838U 23079R   23168.26932104  .00023049  00000+0  15051-3 0  9990
2 56838  43.0048 137.2205 0000055 285.1634  74.9229 15.75378392  2487
STARLINK-30076          
1 56839U 23079S   23168.25002315 -.01476436  00000+0 -16031-1 0  9994
2 56839  43.0007 137.4467 0000999 253.6170 313.8250 15.65448235  2489
STARLINK-30073          
1 56840U 23079T   23168.58334491 -.00635854  00000+0 -42489-2 0  9992
2 56840  43.0046 135.1951 0005331 258.2417 133.3998 15.76080892  2530
STARLINK-30078          
1 56841U 23079U   23168.58334491 -.01790924  00000+0 -20234-1 0  9997
2 56841  43.0012 135.4519 0001855 282.5856   5.6863 15.64543671  2539
STARLINK-30135          
1 56842U 23079V   23168.25002315 -.01632202  00000+0 -12873-1 0  9993
2 56842  43.0025 137.1173 0001196 271.1250  69.3132 15.73363643  2488
STARLINK-30137          
1 56843U 23079W   23168.25002315 -.01639888  00000+0 -12831-1 0  9995
2 56843  43.0026 137.1160 0000977 234.4483 106.3608 15.73562729  2488
STARLINK-30136          
1 56844U 23079X   23168.58334491 -.01822368  00000+0 -14657-1 0  9990
2 56844  43.0024 135.0943 0000757 328.3150 103.4198 15.73265472  2536
DRAGON CRS-28           
1 56845U 23080A   23167.49074611 -.00152675  00000+0 -27135-2 0  9999
2 56845  51.6394 331.9694 0004893  61.3577  36.0003 15.50048895401682
SZ-15 MODULE            
1 56873U 22162C   23168.24026668  .00024722  00000+0  31225-3 0  9998
2 56873  41.4840 155.7107 0005355  42.2639 317.8611 15.58964716  2003
LONGJIANG 3             
1 56874U 23082A   23168.41723819  .00012790  00000+0  53535-3 0  9992
2 56874  49.1317 224.4551 0006745 300.5641  59.4636 15.23795103  1269
